*******************************************************************************
 Revised: Sep 10, 2019             Bianca  / (Uranus)                       708

 SATELLITE PHYSICAL PROPERTIES:
  Radius (km)           = 22 +- 3           Density (g cm^-3)   =
  Mass (10^20 kg )      =                   Geometric Albedo    =   0.07 
                                            V(1,0)              = +10.3

 SATELLITE ORBITAL DATA:
  Semi-major axis, a (km) =  59.165 (10^3)  Orbital period      =  0.434577 d
  Eccentricity, e         =   0.001         Rotational period   = 
  Inclination, i  (deg)   =   0.2
*******************************************************************************
 
 
*******************************************************************************
Ephemeris / WWW_USER Fri Jun 19 18:48:29 2020 Pasadena, USA      / Horizons
*******************************************************************************
Target body name: Bianca (708)                    {source: ura115}
Center body name: Solar System Barycenter (0)     {source: DE431mx}
Center-site name: BODY CENTER
*******************************************************************************
Start time      : A.D. 1982-Jan-31 00:00:00.0000 TDB
Stop  time      : A.D. 2052-Mar-04 00:00:00.0000 TDB
Step-size       : 7200 minutes
*******************************************************************************
Center geodetic : 0.00000000,0.00000000,0.0000000 {E-lon(deg),Lat(deg),Alt(km)}
Center cylindric: 0.00000000,0.00000000,0.0000000 {E-lon(deg),Dxy(km),Dz(km)}
Center radii    : (undefined)                                                  
Output units    : AU-D
Output type     : GEOMETRIC cartesian states
Output format   : 2 (position and velocity)
Reference frame : Ecliptic of J2000.0
*******************************************************************************
            JDTDB,            Calendar Date (TDB),        delta-T,                      X,                      Y,                      Z,                     VX,                     VY,                     VZ,
******************************************************************************************************************************************************************************************************************
$$SOE
2468760.500000000, A.D. 2047-Feb-19 00:00:00.0000,      69.185168, -1.641278586143481E+01,  8.131726707546141E+00,  2.423707672385032E-01, -6.251808504323659E-03, -2.265424475089975E-03,  3.275238292293254E-03,
2468765.500000000, A.D. 2047-Feb-24 00:00:00.0000,      69.185266, -1.642117970495514E+01,  8.113160444618309E+00,  2.430502260101596E-01,  2.582633479249368E-03, -5.148297024334401E-03, -3.403846293181961E-03,
2468770.500000000, A.D. 2047-Mar-01 00:00:00.0000,      69.185355, -1.643052260769678E+01,  8.094623188344274E+00,  2.424781712473760E-01, -6.007074342966297E-03, -2.278921585478215E-03,  3.581440263247345E-03,
2468775.500000000, A.D. 2047-Mar-06 00:00:00.0000,      69.185432, -1.643883658123207E+01,  8.076023788339700E+00,  2.431246558033085E-01,  2.343771736643701E-03, -5.139089617846388E-03, -3.702170305693607E-03,
2468780.500000000, A.D. 2047-Mar-11 00:00:00.0000,      69.185497, -1.644817869861046E+01,  8.057480554296403E+00,  2.425861028464942E-01, -5.742737847006776E-03, -2.299405591478412E-03,  3.871187382814584E-03,
2468785.500000000, A.D. 2047-Mar-16 00:00:00.0000,      69.185551, -1.645641548314073E+01,  8.038848253083669E+00,  2.431962714754680E-01,  2.086053351752639E-03, -5.122965477737472E-03, -3.983556312314745E-03,
2468790.500000000, A.D. 2047-Mar-21 00:00:00.0000,      69.185594, -1.646575427341120E+01,  8.020298991878644E+00,  2.426943169932056E-01, -5.460243545823289E-03, -2.326704573989530E-03,  4.143222727880131E-03,
2468795.500000000, A.D. 2047-Mar-26 00:00:00.0000,      69.185626, -1.647391619550985E+01,  8.001634034469143E+00,  2.432653626388094E-01,  1.810695507912070E-03, -5.100042512274485E-03, -4.246651794523692E-03,
2468800.500000000, A.D. 2047-Mar-31 00:00:00.0000,      69.185647, -1.648324942875493E+01,  7.983078649659462E+00,  2.428023707189629E-01, -5.160894337036526E-03, -2.360620048687704E-03,  4.396577855179288E-03,
2468805.500000000, A.D. 2047-Apr-05 00:00:00.0000,      69.185655, -1.649133879113365E+01,  7.964381438292752E+00,  2.433325567491381E-01,  1.519417093037828E-03, -5.070589923511786E-03, -4.490292295687131E-03,
2468810.500000000, A.D. 2047-Apr-10 00:00:00.0000,      69.185648, -1.650066349612012E+01,  7.945819549496735E+00,  2.429100961962610E-01, -4.846088945567853E-03, -2.401003477430236E-03,  4.629673391617661E-03,
2468815.500000000, A.D. 2047-Apr-15 00:00:00.0000,      69.185629, -1.650868348292482E+01,  7.927090656777733E+00,  2.433974672959728E-01,  1.213159541994292E-03, -5.034718980290482E-03, -4.713297633880257E-03,
2468820.500000000, A.D. 2047-Apr-20 00:00:00.0000,      69.185600, -1.651799649040041E+01,  7.908521931786879E+00,  2.430178034875120E-01, -4.517085411509449E-03, -2.447615027605882E-03,  4.841710125574022E-03,
2468825.500000000, A.D. 2047-Apr-25 00:00:00.0000,      69.185561, -1.652595008334088E+01,  7.889761826716193E+00,  2.434599467144399E-01,  8.933627172978314E-04, -4.992676937450151E-03, -4.914598751984880E-03,
2468830.500000000, A.D. 2047-Apr-30 00:00:00.0000,      69.185510, -1.653524853171641E+01,  7.871186036834331E+00,  2.431256346002501E-01, -4.175052486746283E-03, -2.500247815672186E-03,  5.031720015499035E-03,
2468835.500000000, A.D. 2047-May-05 00:00:00.0000,      69.185447, -1.654313814798946E+01,  7.852395088424443E+00,  2.435202683773203E-01,  5.615009489409572E-04, -4.944796208564194E-03, -5.093626410424169E-03,
2468840.500000000, A.D. 2047-May-10 00:00:00.0000,      69.185372, -1.655241942179216E+01,  7.833811921448074E+00,  2.432329162547102E-01, -3.821950301068612E-03, -2.558510682820498E-03,  5.198781708674493E-03,
2468845.500000000, A.D. 2047-May-15 00:00:00.0000,      69.185287, -1.656024819248121E+01,  7.814990802902050E+00,  2.435787925970886E-01,  2.192064973814486E-04, -4.891343614544461E-03, -5.249074857102568E-03,
2468850.500000000, A.D. 2047-May-20 00:00:00.0000,      69.185195, -1.656950862628332E+01,  7.796399670354589E+00,  2.433396817598720E-01, -3.459124679961130E-03, -2.622140995812683E-03,  5.342005003487580E-03,
2468855.500000000, A.D. 2047-May-25 00:00:00.0000,      69.185095, -1.657728034721993E+01,  7.777549193241670E+00,  2.436355150693509E-01, -1.318381036464950E-04, -4.832685134181138E-03, -5.380272684772566E-03,
2468860.500000000, A.D. 2047-May-30 00:00:00.0000,      69.184988, -1.658651589008503E+01,  7.758949444724085E+00,  2.434460543770807E-01, -3.088202284386117E-03, -2.690816713979474E-03,  5.460499667008322E-03,
2468865.500000000, A.D. 2047-Jun-04 00:00:00.0000,      69.184872, -1.659423426542899E+01,  7.740070344082898E+00,  2.436901956313804E-01, -4.903357812702638E-04, -4.769121877743407E-03, -5.486710143728327E-03,
2468870.500000000, A.D. 2047-Jun-09 00:00:00.0000,      69.184748, -1.660344174101016E+01,  7.721461527013559E+00,  2.435518017792055E-01, -2.710884631911878E-03, -2.764086053803829E-03,  5.554226835043761E-03,
2468875.500000000, A.D. 2047-Jun-14 00:00:00.0000,      69.184619, -1.661110960793288E+01,  7.702554467349668E+00,  2.437434879550804E-01, -8.541901769328642E-04, -4.701136065089113E-03, -5.567983953455156E-03,
2468880.500000000, A.D. 2047-Jun-19 00:00:00.0000,      69.184488, -1.662028591733514E+01,  7.683936003204941E+00,  2.436565178929646E-01, -2.328884606861852E-03, -2.841591513956649E-03,  5.622529705906513E-03,
2468885.500000000, A.D. 2047-Jun-24 00:00:00.0000,      69.184354, -1.662790645791240E+01,  7.665001797671084E+00,  2.437955550303119E-01, -1.221835319868748E-03, -4.629097277564402E-03, -5.623800777523772E-03,
2468890.500000000, A.D. 2047-Jun-29 00:00:00.0000,      69.184218, -1.663704802901241E+01,  7.646372975200747E+00,  2.437600941640038E-01, -1.944052660100451E-03, -2.922917591762724E-03,  5.665050140501779E-03,
2468895.500000000, A.D. 2047-Jul-04 00:00:00.0000,      69.184078, -1.664462513990693E+01,  7.627412557592390E+00,  2.438461150189418E-01, -1.591715494764717E-03, -4.553310786604280E-03, -5.653526826500594E-03,
2468900.500000000, A.D. 2047-Jul-09 00:00:00.0000,      69.183937, -1.665372804474958E+01,  7.608772714738750E+00,  2.438630621453210E-01, -1.557599080922340E-03, -3.007775312863955E-03,  5.681631305884173E-03,
2468905.500000000, A.D. 2047-Jul-14 00:00:00.0000,      69.183796, -1.666126511281771E+01,  7.589786813040008E+00,  2.438951188676108E-01, -1.962141988687341E-03, -4.474217599844162E-03, -5.657406374144264E-03,
2468910.500000000, A.D. 2047-Jul-19 00:00:00.0000,      69.183659, -1.667032608094293E+01,  7.571135394948294E+00,  2.439650221258315E-01, -1.171536467883619E-03, -3.095712647165610E-03,  5.672154302427149E-03,
2468915.500000000, A.D. 2047-Jul-24 00:00:00.0000,      69.183525, -1.667782630034168E+01,  7.552124793673063E+00,  2.439429531793679E-01, -2.331398170930571E-03, -4.392188445927436E-03, -5.635269223632149E-03,
2468920.500000000, A.D. 2047-Jul-29 00:00:00.0000,      69.183394, -1.668684202835824E+01,  7.533461125859349E+00,  2.440654800469928E-01, -7.877024866810506E-04, -3.186292411374044E-03,  5.636806793830525E-03,
2468925.500000000, A.D. 2047-Aug-03 00:00:00.0000,      69.183265, -1.669430896888524E+01,  7.514426825114821E+00,  2.439901582982076E-01, -2.697348702125479E-03, -4.307681449560635E-03, -5.587061045959168E-03,
2468930.500000000, A.D. 2047-Aug-08 00:00:00.0000,      69.183141, -1.670327527197475E+01,  7.495749976993067E+00,  2.441644293586230E-01, -4.077755589160575E-04, -3.279197247946574E-03,  5.575309319391222E-03,
2468935.500000000, A.D. 2047-Aug-13 00:00:00.0000,      69.183023, -1.671071304116864E+01,  7.476693029062608E+00,  2.440363622895519E-01, -3.058663134870811E-03, -4.221010935134616E-03, -5.513090423743963E-03,
